H1 CPF  1  HTS 2022  3  3 12  5621 larets           NONE
H2  0304206 5557    27944 2022 03 03  0  0  0 2022 03 08  0  0  0   180 1 1  0 0 0
H5  0.0560 
H9 
10 0 59644  33480.00000  0   -2278743.122   -6689296.226      95234.574
10 0 59644  33660.00000  0   -2497396.431   -6456154.470    1423182.839
10 0 59644  33840.00000  0   -2616019.704   -5983932.711    2699027.800
10 0 59644  34020.00000  0   -2624329.102   -5292649.039    3876105.061
10 0 59644  34200.00000  0   -2516703.095   -4410509.142    4911431.966
10 0 59644  34380.00000  0   -2292568.604   -3372708.987    5767277.157
10 0 59644  34560.00000  0   -1956566.371   -2219983.554    6412512.572
10 0 59644  34740.00000  0   -1518487.237    -996977.252    6823702.926
10 0 59644  34920.00000  0    -992988.904     249495.602    6985912.171
10 0 59644  35100.00000  0    -399107.894    1472235.006    6893208.702
10 0 59644  35280.00000  0     240422.766    2625425.209    6548874.016
10 0 59644  35460.00000  0     900032.953    3666340.167    5965303.700
10 0 59644  35640.00000  0    1552321.698    4556929.607    5163602.183
10 0 59644  35820.00000  0    2169179.797    5265237.941    4172873.220
10 0 59644  36000.00000  0    2722990.364    5766599.493    3029213.555
10 0 59644  36180.00000  0    3187858.511    6044562.653    1774431.805
10 0 59644  36360.00000  0    3540810.715    6091490.727     454514.332
10 0 59644  36540.00000  0    3762896.797    5908791.516    -882093.712
10 0 59644  36720.00000  0    3840139.712    5506766.110   -2186317.570
10 0 59644  36900.00000  0    3764280.256    4904081.663   -3410311.483
10 0 59644  37080.00000  0    3533273.837    4126894.385   -4509262.359
10 0 59644  37260.00000  0    3151514.621    3207675.174   -5443051.434
10 0 59644  37440.00000  0    2629783.722    2183806.734   -6177709.977
10 0 59644  37620.00000  0    1984927.924    1096022.296   -6686617.115
10 0 59644  37800.00000  0    1239290.556     -13236.566   -6951407.167
10 0 59644  37980.00000  0     419922.517   -1101474.474   -6962579.449
10 0 59644  38160.00000  0    -442403.695   -2127756.109   -6719801.500
10 0 59644  38340.00000  0   -1314338.624   -3054223.928   -6231908.505
10 0 59644  38520.00000  0   -2161229.797   -3847484.241   -5516602.670
10 0 59644  38700.00000  0   -2948483.410   -4479816.227   -4599853.241
10 0 59644  38880.00000  0   -3642974.305   -4930167.653   -3515004.527
10 0 59644  39060.00000  0   -4214445.491   -5184890.990   -2301601.467
10 0 59644  39240.00000  0   -4636835.512   -5238185.510   -1003967.238
10 0 59644  39420.00000  0   -4889468.349   -5092219.361     330423.573
10 0 59644  39600.00000  0   -4958040.829   -4756920.238    1652713.605
10 0 59644  39780.00000  0   -4835351.993   -4249438.356    2914497.574
10 0 59644  39960.00000  0   -4521733.627   -3593308.635    4069634.411
10 0 59644  40140.00000  0   -4025164.501   -2817361.940    5075956.417
10 0 59644  40320.00000  0   -3361064.646   -1954443.413    5896803.381
10 0 59644  40500.00000  0   -2551791.258   -1040010.846    6502327.397
10 0 59644  40680.00000  0   -1625859.317    -110672.098    6870539.633
10 0 59644  40860.00000  0    -616916.969     797277.815    6988061.903
10 0 59644  41040.00000  0     437475.051    1649257.837    6850579.016
10 0 59644  41220.00000  0    1497227.211    2413706.122    6462993.047
10 0 59644  41400.00000  0    2521229.284    3063244.923    5839269.156
10 0 59644  41580.00000  0    3468935.483    3575669.685    5001978.973
10 0 59644  41760.00000  0    4301978.442    3934732.541    3981537.801
10 0 59644  41940.00000  0    4985746.509    4130686.181    2815149.433
10 0 59644  42120.00000  0    5490865.759    4160564.710    1545474.399
10 0 59644  42300.00000  0    5794501.149    4028175.008     219061.992
10 0 59644  42480.00000  0    5881410.240    3743797.072   -1115394.204
10 0 59644  42660.00000  0    5744684.817    3323602.803   -2408900.113
10 0 59644  42840.00000  0    5386140.538    2788824.492   -3614015.889
10 0 59644  43020.00000  0    4816338.200    2164721.134   -4686637.858
10 0 59644  43200.00000  0    4054236.786    1479395.431   -5587632.021
10 0 59644  43380.00000  0    3126502.174     762526.912   -6284244.339
10 0 59644  43560.00000  0    2066516.840      44089.085   -6751248.782
10 0 59644  43740.00000  0     913138.926    -646894.301   -6971803.778
10 0 59644  43920.00000  0    -290736.771   -1283507.486   -6938009.733
10 0 59644  44100.00000  0   -1499769.605   -1841974.376   -6651157.798
10 0 59644  44280.00000  0   -2667862.399   -2302533.643   -6121676.840
10 0 59644  44460.00000  0   -3749900.422   -2650133.392   -5368777.244
10 0 59644  44640.00000  0   -4703489.506   -2874926.366   -4419801.402
10 0 59644  44820.00000  0   -5490637.273   -2972548.214   -3309279.439
10 0 59644  45000.00000  0   -6079304.214   -2944162.886   -2077709.283
10 0 59644  45180.00000  0   -6444754.418   -2796270.355    -770093.191
10 0 59644  45360.00000  0   -6570634.697   -2540282.074     565719.206
10 0 59644  45540.00000  0   -6449723.192   -2191881.946    1880816.029
10 0 59644  45720.00000  0   -6084300.833   -1770204.339    3127060.499
10 0 59644  45900.00000  0   -5486124.291   -1296872.806    4258890.686
10 0 59644  46080.00000  0   -4676007.264    -794950.865    5235005.197
10 0 59644  46260.00000  0   -3683038.229    -287861.624    6019857.545
10 0 59644  46440.00000  0   -2543487.004     201670.375    6584918.955
10 0 59644  46620.00000  0   -1299441.438     652608.870    6909671.675
10 0 59644  46800.00000  0       2762.387    1046484.376    6982309.440
10 0 59644  46980.00000  0    1314257.178    1368135.476    6800138.130
10 0 59644  47160.00000  0    2585458.153    1606288.386    6369674.737
10 0 59644  47340.00000  0    3767921.924    1753955.200    5706441.706
10 0 59644  47520.00000  0    4816195.561    1808637.699    4834455.204
10 0 59644  47700.00000  0    5689589.886    1772331.371    3785412.390
10 0 59644  47880.00000  0    6353817.082    1651327.659    2597584.469
10 0 59644  48060.00000  0    6782404.673    1455816.461    1314437.255
10 0 59644  48240.00000  0    6957819.395    1199306.217     -16970.630
10 0 59644  48420.00000  0    6872233.278     897889.156   -1347754.921
10 0 59644  48600.00000  0    6527883.558     569386.528   -2629058.958
10 0 59644  48780.00000  0    5937006.567     232418.739   -3813902.539
10 0 59644  48960.00000  0    5121352.388     -94545.073   -4858945.416
10 0 59644  49140.00000  0    4111307.684    -394108.373   -5726083.065
10 0 59644  49320.00000  0    2944688.235    -650792.087   -6383812.318
10 0 59644  49500.00000  0    1665262.427    -851766.467   -6808331.905
10 0 59644  49680.00000  0     321073.966    -987438.418   -6984346.066
10 0 59644  49860.00000  0   -1037368.573   -1051874.449   -6905567.235
10 0 59644  50040.00000  0   -2358976.164   -1043044.559   -6574912.804
10 0 59644  50220.00000  0   -3593979.997    -962881.720   -6004395.961
10 0 59644  50400.00000  0   -4695788.584    -817155.975   -5214717.233
10 0 59644  50580.00000  0   -5622754.551    -615168.242   -4234562.207
10 0 59644  50760.00000  0   -6339783.434    -369274.085   -3099608.173
10 0 59644  50940.00000  0   -6819719.605     -94254.030   -1851260.164
10 0 59644  51120.00000  0   -7044440.348     193443.257    -535150.331
10 0 59644  51300.00000  0   -7005596.368     476550.709     800551.603
10 0 59644  51480.00000  0   -6704946.966     737880.856    2106939.630
10 0 59644  51660.00000  0   -6154281.309     961224.042    3336204.335
10 0 59644  51840.00000  0   -5374922.512    1132200.081    4443419.664
10 0 59644  52020.00000  0   -4396844.059    1239018.565    5388197.452
10 0 59644  52200.00000  0   -3257457.236    1273110.189    6136144.246
10 0 59644  52380.00000  0   -2000133.940    1229601.965    6660079.244
10 0 59644  52560.00000  0    -672524.569    1107618.016    6940979.298
10 0 59644  52740.00000  0     675254.889     910393.773    6968623.775
10 0 59644  52920.00000  0    1992497.921     645200.281    6741941.438
10 0 59644  53100.00000  0    3229794.029     323081.869    6269057.477
10 0 59644  53280.00000  0    4340873.929     -41587.056    5567036.553
10 0 59644  53460.00000  0    5284354.861    -431714.191    4661317.291
10 0 59644  53640.00000  0    6025323.031    -828250.207    3584844.700
10 0 59644  53820.00000  0    6536692.336   -1211069.168    2376913.460
10 0 59644  54000.00000  0    6800270.655   -1559930.129    1081746.124
10 0 59644  54180.00000  0    6807473.266   -1855473.842    -253142.465
10 0 59644  54360.00000  0    6559642.499   -2080205.965   -1578733.662
10 0 59644  54540.00000  0    6067944.040   -2219408.503   -2846365.718
10 0 59644  54720.00000  0    5352846.209   -2261931.307   -4009575.334
10 0 59644  54900.00000  0    4443217.196   -2200821.369   -5025833.584
10 0 59644  55080.00000  0    3375094.262   -2033761.329   -5858106.749
10 0 59644  55260.00000  0    2190190.147   -1763297.954   -6476178.059
10 0 59644  55440.00000  0     934221.512   -1396853.109   -6857696.142
10 0 59644  55620.00000  0    -344876.092    -946520.594   -6988929.240
10 0 59644  55800.00000  0   -1598774.319    -428661.139   -6865211.518
10 0 59644  55980.00000  0   -2780560.188     136691.755   -6491085.206
10 0 59644  56160.00000  0   -3846470.833     726597.607   -5880136.677
10 0 59644  56340.00000  0   -4757505.440    1316121.514   -5054537.017
10 0 59644  56520.00000  0   -5480870.237    1879366.053   -4044287.543
10 0 59644  56700.00000  0   -5991199.872    2390589.543   -2886176.232
10 0 59644  56880.00000  0   -6271498.870    2825358.484   -1622467.866
10 0 59644  57060.00000  0   -6313758.928    3161683.278    -299367.193
10 0 59644  57240.00000  0   -6119212.735    3381080.511    1034693.175
10 0 59644  57420.00000  0   -5698200.870    3469502.354    2330868.388
10 0 59644  57600.00000  0   -5069656.054    3418083.903    3541733.150
10 0 59644  57780.00000  0   -4260238.545    3223669.179    4623047.791
99
